[{"OBJECT_NAME":"SHIYAN-1 (SY-1)","OBJECT_ID":"2004-012A","EPOCH":"2026-03-09T17:40:34.066560","MEAN_MOTION":15.31043463,"ECCENTRICITY":0.00058726,"INCLINATION":97.8764,"RA_OF_ASC_NODE":140.5238,"ARG_OF_PERICENTER":23.6952,"MEAN_ANOMALY":336.4557,"EPHEMERIS_TYPE":0,"CLASSIFICATION_TYPE":"U","NORAD_CAT_ID":28220,"ELEMENT_SET_NO":999,"REV_AT_EPOCH":19586,"BSTAR":0.00054854449,"MEAN_MOTION_DOT":0.00016393,"MEAN_MOTION_DDOT":0},{"OBJECT_NAME":"STARLINK-31729","OBJECT_ID":"2024-080K","EPOCH":"2026-03-09T21:51:07.917120","MEAN_MOTION":15.27577579,"ECCENTRICITY":0.00014333,"INCLINATION":43.0049,"RA_OF_ASC_NODE":33.4415,"ARG_OF_PERICENTER":251.0828,"MEAN_ANOMALY":108.9869,"EPHEMERIS_TYPE":0,"CLASSIFICATION_TYPE":"U","NORAD_CAT_ID":59610,"ELEMENT_SET_NO":999,"REV_AT_EPOCH":10460,"BSTAR":-7.484052e-5,"MEAN_MOTION_DOT":-2.321e-5,"MEAN_MOTION_DDOT":0}]
